CCSDS_OMM_VERS = 2.0
CREATION_DATE  = 
ORIGINATOR     = 

OBJECT_NAME    = SL-4 R/B
OBJECT_ID      = 2014-021B
CENTER_NAME    = EARTH
REF_FRAME      = TEME
TIME_SYSTEM    = UTC
MEAN_ELEMENT_THEORY = SGP/SGP4

EPOCH          = 2026-01-08T04:59:59.338752
MEAN_MOTION    = 15.37384864
ECCENTRICITY   = .00997488
INCLINATION    = 51.6070
RA_OF_ASC_NODE = 271.8984
ARG_OF_PERICENTER = 242.0811
MEAN_ANOMALY   = 117.0045

EPHEMERIS_TYPE = 0
CLASSIFICATION_TYPE = U
NORAD_CAT_ID   = 39679
ELEMENT_SET_NO = 999
REV_AT_EPOCH   = 64696
BSTAR          = .30195727E-3
MEAN_MOTION_DOT = .12889E-3
MEAN_MOTION_DDOT = 0

CCSDS_OMM_VERS = 2.0
CREATION_DATE  = 
ORIGINATOR     = 

OBJECT_NAME    = ALOS-2
OBJECT_ID      = 2014-029A
CENTER_NAME    = EARTH
REF_FRAME      = TEME
TIME_SYSTEM    = UTC
MEAN_ELEMENT_THEORY = SGP/SGP4

EPOCH          = 2026-01-08T06:07:22.717056
MEAN_MOTION    = 14.79462788
ECCENTRICITY   = .00014078
INCLINATION    = 97.9214
RA_OF_ASC_NODE = 107.7224
ARG_OF_PERICENTER = 98.7421
MEAN_ANOMALY   = 261.3950

EPHEMERIS_TYPE = 0
CLASSIFICATION_TYPE = U
NORAD_CAT_ID   = 39766
ELEMENT_SET_NO = 999
REV_AT_EPOCH   = 62793
BSTAR          = .88279483E-4
MEAN_MOTION_DOT = .608E-5
MEAN_MOTION_DDOT = 0

CCSDS_OMM_VERS = 2.0
CREATION_DATE  = 
ORIGINATOR     = 

OBJECT_NAME    = YAOGAN-29
OBJECT_ID      = 2015-069A
CENTER_NAME    = EARTH
REF_FRAME      = TEME
TIME_SYSTEM    = UTC
MEAN_ELEMENT_THEORY = SGP/SGP4

EPOCH          = 2026-01-08T08:06:34.399296
MEAN_MOTION    = 14.82917071
ECCENTRICITY   = .00018675
INCLINATION    = 98.0195
RA_OF_ASC_NODE = 36.5920
ARG_OF_PERICENTER = 138.0228
MEAN_ANOMALY   = 222.1129

EPHEMERIS_TYPE = 0
CLASSIFICATION_TYPE = U
NORAD_CAT_ID   = 41038
ELEMENT_SET_NO = 999
REV_AT_EPOCH   = 54693
BSTAR          = .3012877E-4
MEAN_MOTION_DOT = .19E-5
MEAN_MOTION_DDOT = 0

CCSDS_OMM_VERS = 2.0
CREATION_DATE  = 
ORIGINATOR     = 

OBJECT_NAME    = ASTRO-H (HITOMI)
OBJECT_ID      = 2016-012A
CENTER_NAME    = EARTH
REF_FRAME      = TEME
TIME_SYSTEM    = UTC
MEAN_ELEMENT_THEORY = SGP/SGP4

EPOCH          = 2026-01-08T08:08:42.451008
MEAN_MOTION    = 15.09561227
ECCENTRICITY   = .00095502
INCLINATION    = 31.0009
RA_OF_ASC_NODE = 25.8649
ARG_OF_PERICENTER = 86.9047
MEAN_ANOMALY   = 273.2684

EPHEMERIS_TYPE = 0
CLASSIFICATION_TYPE = U
NORAD_CAT_ID   = 41337
ELEMENT_SET_NO = 999
REV_AT_EPOCH   = 54310
BSTAR          = .20608756E-3
MEAN_MOTION_DOT = .3487E-4
MEAN_MOTION_DDOT = 0

CCSDS_OMM_VERS = 2.0
CREATION_DATE  = 
ORIGINATOR     = 

OBJECT_NAME    = HXMT (HUIYAN)
OBJECT_ID      = 2017-034A
CENTER_NAME    = EARTH
REF_FRAME      = TEME
TIME_SYSTEM    = UTC
MEAN_ELEMENT_THEORY = SGP/SGP4

EPOCH          = 2026-01-08T06:28:40.618848
MEAN_MOTION    = 15.16627217
ECCENTRICITY   = .00329532
INCLINATION    = 43.0155
RA_OF_ASC_NODE = 352.3697
ARG_OF_PERICENTER = 214.5191
MEAN_ANOMALY   = 145.3516

EPHEMERIS_TYPE = 0
CLASSIFICATION_TYPE = U
NORAD_CAT_ID   = 42758
ELEMENT_SET_NO = 999
REV_AT_EPOCH   = 47336
BSTAR          = .37973843E-3
MEAN_MOTION_DOT = .7431E-4
MEAN_MOTION_DDOT = 0

CCSDS_OMM_VERS = 2.0
CREATION_DATE  = 
ORIGINATOR     = 

OBJECT_NAME    = CZ-2C R/B
OBJECT_ID      = 2018-054D
CENTER_NAME    = EARTH
REF_FRAME      = TEME
TIME_SYSTEM    = UTC
MEAN_ELEMENT_THEORY = SGP/SGP4

EPOCH          = 2026-01-08T07:38:41.021376
MEAN_MOTION    = 15.80990564
ECCENTRICITY   = .0010674
INCLINATION    = 35.1338
RA_OF_ASC_NODE = 359.8199
ARG_OF_PERICENTER = 55.4889
MEAN_ANOMALY   = 304.6853

EPHEMERIS_TYPE = 0
CLASSIFICATION_TYPE = U
NORAD_CAT_ID   = 43521
ELEMENT_SET_NO = 999
REV_AT_EPOCH   = 41925
BSTAR          = .89099068E-3
MEAN_MOTION_DOT = .1847E-2
MEAN_MOTION_DDOT = 0

CCSDS_OMM_VERS = 2.0
CREATION_DATE  = 
ORIGINATOR     = 

OBJECT_NAME    = SAOCOM 1A
OBJECT_ID      = 2018-076A
CENTER_NAME    = EARTH
REF_FRAME      = TEME
TIME_SYSTEM    = UTC
MEAN_ELEMENT_THEORY = SGP/SGP4

EPOCH          = 2026-01-08T06:30:17.709120
MEAN_MOTION    = 14.82169582
ECCENTRICITY   = .00013361
INCLINATION    = 97.8846
RA_OF_ASC_NODE = 197.3072
ARG_OF_PERICENTER = 84.7100
MEAN_ANOMALY   = 275.4265

EPHEMERIS_TYPE = 0
CLASSIFICATION_TYPE = U
NORAD_CAT_ID   = 43641
ELEMENT_SET_NO = 999
REV_AT_EPOCH   = 39241
BSTAR          = .19498626E-3
MEAN_MOTION_DOT = .1501E-4
MEAN_MOTION_DDOT = 0

CCSDS_OMM_VERS = 2.0
CREATION_DATE  = 
ORIGINATOR     = 

OBJECT_NAME    = H-2A R/B
OBJECT_ID      = 2018-084L
CENTER_NAME    = EARTH
REF_FRAME      = TEME
TIME_SYSTEM    = UTC
MEAN_ELEMENT_THEORY = SGP/SGP4

EPOCH          = 2026-01-08T02:36:10.658016
MEAN_MOTION    = 15.38553619
ECCENTRICITY   = .00258817
INCLINATION    = 98.8764
RA_OF_ASC_NODE = 212.6772
ARG_OF_PERICENTER = 233.2542
MEAN_ANOMALY   = 126.6322

EPHEMERIS_TYPE = 0
CLASSIFICATION_TYPE = U
NORAD_CAT_ID   = 43682
ELEMENT_SET_NO = 999
REV_AT_EPOCH   = 39645
BSTAR          = .47032233E-3
MEAN_MOTION_DOT = .18017E-3
MEAN_MOTION_DDOT = 0

CCSDS_OMM_VERS = 2.0
CREATION_DATE  = 
ORIGINATOR     = 

OBJECT_NAME    = SAOCOM 1B
OBJECT_ID      = 2020-059A
CENTER_NAME    = EARTH
REF_FRAME      = TEME
TIME_SYSTEM    = UTC
MEAN_ELEMENT_THEORY = SGP/SGP4

EPOCH          = 2026-01-08T07:15:14.177952
MEAN_MOTION    = 14.82174206
ECCENTRICITY   = .00014712
INCLINATION    = 97.8844
RA_OF_ASC_NODE = 196.4374
ARG_OF_PERICENTER = 82.9225
MEAN_ANOMALY   = 277.2155

EPHEMERIS_TYPE = 0
CLASSIFICATION_TYPE = U
NORAD_CAT_ID   = 46265
ELEMENT_SET_NO = 999
REV_AT_EPOCH   = 28980
BSTAR          = .40809885E-4
MEAN_MOTION_DOT = .273E-5
MEAN_MOTION_DDOT = 0

CCSDS_OMM_VERS = 2.0
CREATION_DATE  = 
ORIGINATOR     = 

OBJECT_NAME    = CSS (TIANHE)
OBJECT_ID      = 2021-035A
CENTER_NAME    = EARTH
REF_FRAME      = TEME
TIME_SYSTEM    = UTC
MEAN_ELEMENT_THEORY = SGP/SGP4

EPOCH          = 2026-01-08T05:21:18.004320
MEAN_MOTION    = 15.60275866
ECCENTRICITY   = .00112
INCLINATION    = 41.4651
RA_OF_ASC_NODE = 215.7921
ARG_OF_PERICENTER = 243.0655
MEAN_ANOMALY   = 116.9039

EPHEMERIS_TYPE = 0
CLASSIFICATION_TYPE = U
NORAD_CAT_ID   = 48274
ELEMENT_SET_NO = 999
REV_AT_EPOCH   = 26816
BSTAR          = .15228564E-3
MEAN_MOTION_DOT = .12515E-3
MEAN_MOTION_DDOT = 0

CCSDS_OMM_VERS = 2.0
CREATION_DATE  = 
ORIGINATOR     = 

OBJECT_NAME    = COSMOS 2550
OBJECT_ID      = 2021-056A
CENTER_NAME    = EARTH
REF_FRAME      = TEME
TIME_SYSTEM    = UTC
MEAN_ELEMENT_THEORY = SGP/SGP4

EPOCH          = 2026-01-08T07:56:16.181376
MEAN_MOTION    = 15.33825640
ECCENTRICITY   = .0008382
INCLINATION    = 67.1412
RA_OF_ASC_NODE = 223.5040
ARG_OF_PERICENTER = 268.8671
MEAN_ANOMALY   = 91.1523

EPHEMERIS_TYPE = 0
CLASSIFICATION_TYPE = U
NORAD_CAT_ID   = 48865
ELEMENT_SET_NO = 999
REV_AT_EPOCH   = 25420
BSTAR          = -.20453E-7
MEAN_MOTION_DOT = -.192E-5
MEAN_MOTION_DDOT = 0

CCSDS_OMM_VERS = 2.0
CREATION_DATE  = 
ORIGINATOR     = 

OBJECT_NAME    = CZ-2C R/B
OBJECT_ID      = 2022-058K
CENTER_NAME    = EARTH
REF_FRAME      = TEME
TIME_SYSTEM    = UTC
MEAN_ELEMENT_THEORY = SGP/SGP4

EPOCH          = 2026-01-08T02:56:48.417504
MEAN_MOTION    = 15.50157065
ECCENTRICITY   = .00434361
INCLINATION    = 50.1898
RA_OF_ASC_NODE = 268.8523
ARG_OF_PERICENTER = 306.5937
MEAN_ANOMALY   = 53.1039

EPHEMERIS_TYPE = 0
CLASSIFICATION_TYPE = U
NORAD_CAT_ID   = 52794
ELEMENT_SET_NO = 999
REV_AT_EPOCH   = 20072
BSTAR          = .52095604E-3
MEAN_MOTION_DOT = .30754E-3
MEAN_MOTION_DDOT = 0

