SL-4 R/B                
1 39679U 14021B   26008.20832568  .00012889  00000+0  30196-3 0  9991
2 39679  51.6070 271.8984 0099748 242.0811 117.0045 15.37384864646967
ALOS-2                  
1 39766U 14029A   26008.25512404  .00000608  00000+0  88279-4 0  9997
2 39766  97.9214 107.7224 0001407  98.7421 261.3950 14.79462788627930
YAOGAN-29               
1 41038U 15069A   26008.33789814  .00000190  00000+0  30129-4 0  9994
2 41038  98.0195  36.5920 0001867 138.0228 222.1129 14.82917071546937
ASTRO-H (HITOMI)        
1 41337U 16012A   26008.33938022  .00003487  00000+0  20609-3 0  9995
2 41337  31.0009  25.8649 0009550  86.9047 273.2684 15.09561227543103
HXMT (HUIYAN)           
1 42758U 17034A   26008.26991457  .00007431  00000+0  37974-3 0  9997
2 42758  43.0155 352.3697 0032953 214.5191 145.3516 15.16627217473362
CZ-2C R/B               
1 43521U 18054D   26008.31853034  .00184700  00000+0  89099-3 0  9993
2 43521  35.1338 359.8199 0010674  55.4889 304.6853 15.80990564419258
SAOCOM 1A               
1 43641U 18076A   26008.27103830  .00001501  00000+0  19499-3 0  9991
2 43641  97.8846 197.3072 0001336  84.7100 275.4265 14.82169582392410
H-2A R/B                
1 43682U 18084L   26008.10845669  .00018017  00000+0  47032-3 0  9994
2 43682  98.8764 212.6772 0025881 233.2542 126.6322 15.38553619396454
SAOCOM 1B               
1 46265U 20059A   26008.30224743  .00000273  00000+0  40810-4 0  9998
2 46265  97.8844 196.4374 0001471  82.9225 277.2155 14.82174206289801
CSS (TIANHE)            
1 48274U 21035A   26008.22312505  .00012515  00000+0  15229-3 0  9997
2 48274  41.4651 215.7921 0011200 243.0655 116.9039 15.60275866268162
COSMOS 2550             
1 48865U 21056A   26008.33074284 -.00000192  00000+0 -20453-7 0  9996
2 48865  67.1412 223.5040 0008382 268.8671  91.1523 15.33825640254200
CZ-2C R/B               
1 52794U 22058K   26008.12278261  .00030754  00000+0  52096-3 0  9992
2 52794  50.1898 268.8523 0043436 306.5937  53.1039 15.50157065200724
